NORAD_CAT_ID,OBJECT_NAME,OBJECT_TYPE,EPOCH,MEAN_MOTION,ECCENTRICITY,INCLINATION,RA_OF_ASC_NODE,ARG_OF_PERICENTER,MEAN_ANOMALY,BSTAR,MEAN_MOTION_DOT,MEAN_MOTION_DDOT,TLE_LINE0,TLE_LINE1,TLE_LINE2,SEMIMAJOR_AXIS,PERIOD,APOGEE,PERIGEE,DECAYED
51781.0,STARLINK-3580,PAYLOAD,2022-09-27 08:38:47,15.08844654,0.0001949,53.2171,232.4722,48.399,311.7169,0.00025784,3.818e-05,0.0,0 STARLINK-3580,1 51781U 22017P   22270.36027078  .00003818  00000-0  25784-3 0  9999,2 51781  53.2171 232.4722 0001949  48.3990 311.7169 15.08844654 32302,6917.866,95.437,541.0790000000002,538.383,0.0
51781.0,STARLINK-3580,PAYLOAD,2022-09-27 15:00:20,15.08837078,0.0001986999999999,53.2172,231.2826,48.038,312.0781,0.00010888,1.445e-05,0.0,0 STARLINK-3580,1 51781U 22017P   22270.62523413  .00001445  00000-0  10888-3 0  9995,2 51781  53.2172 231.2826 0001987  48.0380 312.0781 15.08837078 33999,6917.889,95.438,541.129,538.38,0.0
51781.0,STARLINK-3580,PAYLOAD,2022-09-28 08:29:34,15.08857,0.0001999,53.2174,228.0117,49.8862,310.2305,0.00049421,7.59e-05,0.0,0 STARLINK-3580,1 51781U 22017P   22271.35386680  .00007590  00000-0  49421-3 0  9991,2 51781  53.2174 228.0117 0001999  49.8862 310.2305 15.08857000 32454,6917.828,95.436,541.076,538.311,0.0
51781.0,STARLINK-3580,PAYLOAD,2022-09-29 03:34:11,15.08835175,0.0001909999999999,53.2175,224.443,41.7283,318.3855,-0.0002343999999999,-4.016e-05,0.0,0 STARLINK-3580,1 51781U 22017P   22272.14874686 -.00004016  00000-0 -23440-3 0  9992,2 51781  53.2175 224.4430 0001910  41.7283 318.3855 15.08835175 34229,6917.895,95.438,541.081,538.439,0.0
51781.0,STARLINK-3580,PAYLOAD,2022-09-29 08:20:21,15.08827121,0.0002075,53.2177,223.5522,46.35,313.7664,-0.00037512,-6.251e-05,0.0,0 STARLINK-3580,1 51781U 22017P   22272.34747073 -.00006251  00000-0 -37512-3 0  9991,2 51781  53.2177 223.5522 0002075  46.3500 313.7664 15.08827121 32608,6917.92,95.438,541.22,538.349,0.0
51781.0,STARLINK-3580,PAYLOAD,2022-09-29 21:03:27,15.08833629,0.0001916,53.2176,221.1726,48.7053,311.4104,-1.2842e-05,-4.92e-06,0.0,0 STARLINK-3580,1 51781U 22017P   22272.87739592 -.00000492  00000-0 -12842-4 0  9997,2 51781  53.2176 221.1726 0001916  48.7053 311.4104 15.08833629 32681,6917.9,95.438,541.09,538.439,0.0
51781.0,STARLINK-3580,PAYLOAD,2022-09-30 03:24:59,15.08836032,0.0001998,53.218,219.9833,48.9048,311.2117,0.00034483,5.204e-05,0.0,0 STARLINK-3580,1 51781U 22017P   22273.14235642  .00005204  00000-0  34483-3 0  9993,2 51781  53.2180 219.9833 0001998  48.9048 311.2117 15.08836032 34377,6917.893,95.438,541.14,538.375,0.0
51781.0,STARLINK-3580,PAYLOAD,2022-09-30 12:57:18,15.08851622,0.0001962,53.2179,218.1996,49.2913,310.8249,0.00099957,0.00015661,0.0,0 STARLINK-3580,1 51781U 22017P   22273.53979635  .00015661  00000-0  99957-3 0  9998,2 51781  53.2179 218.1996 0001962  49.2913 310.8249 15.08851622 32788,6917.845,95.437,541.067,538.3530000000002,0.0
51781.0,STARLINK-3580,PAYLOAD,2022-09-30 20:54:13,15.08865932,0.0001942,53.2176,216.7133,49.9354,310.1808,0.0012902,0.0002032,0.0,0 STARLINK-3580,1 51781U 22017P   22273.87099285  .00020320  00000-0  12902-2 0  9991,2 51781  53.2176 216.7133 0001942  49.9354 310.1808 15.08865932 32835,6917.801,95.436,541.01,538.323,0.0
51781.0,STARLINK-3580,PAYLOAD,2022-10-01 12:48:04,15.08858045,0.0002005,53.2176,213.7397,46.1413,313.9744,0.00048592,7.458e-05,0.0,0 STARLINK-3580,1 51781U 22017P   22274.53338907  .00007458  00000-0  48592-3 0  9994,2 51781  53.2176 213.7397 0002005  46.1413 313.9744 15.08858045 32938,6917.825,95.436,541.077,538.303,0.0
51781.0,STARLINK-3580,PAYLOAD,2022-10-01 20:45:00,15.08856766,0.0001753,53.217,212.2531,58.3814,301.7349,0.00045016,6.887e-05,0.0,0 STARLINK-3580,1 51781U 22017P   22274.86458664  .00006887  00000-0  45016-3 0  9996,2 51781  53.2170 212.2531 0001753  58.3814 301.7349 15.08856766 32984,6917.829000000002,95.436,540.9069999999998,538.481,0.0
51781.0,STARLINK-3580,PAYLOAD,2022-10-02 04:41:56,15.08831207,0.0001788,53.2171,210.7664,50.956,309.1591,-0.00021619,-3.726e-05,0.0,0 STARLINK-3580,1 51781U 22017P   22275.19579221 -.00003726  00000-0 -21619-3 0  9990,2 51781  53.2171 210.7664 0001788  50.9560 309.1591 15.08831207 33030,6917.906999999997,95.438,541.009,538.535,0.0
51781.0,STARLINK-3580,PAYLOAD,2022-10-03 02:57:20,15.08857807,0.000185,53.2163,206.6032,47.4282,312.6866,0.0017814,0.00028191,0.0,0 STARLINK-3580,1 51781U 22017P   22276.12315479  .00028191  00000-0  17814-2 0  9999,2 51781  53.2163 206.6032 0001850  47.4282 312.6866 15.08857807 34822,6917.826,95.436,540.971,538.411,0.0
51781.0,STARLINK-3580,PAYLOAD,2022-10-03 12:29:39,15.08860425,0.0001863,53.2175,204.8176,52.4539,307.6623,0.0010071,0.00015785,0.0,0 STARLINK-3580,1 51781U 22017P   22276.52059209  .00015785  00000-0  10071-2 0  9992,2 51781  53.2175 204.8176 0001863  52.4539 307.6623 15.08860425 33238,6917.818,95.436,540.972,538.394,0.0
51781.0,STARLINK-3580,PAYLOAD,2022-10-03 18:51:11,15.08871478,0.0001804,53.2156,203.6294,51.5179,308.5975,0.0011894,0.00018708,0.0,0 STARLINK-3580,1 51781U 22017P   22276.78554682  .00018708  00000-0  11894-2 0  9997,2 51781  53.2156 203.6294 0001804  51.5179 308.5975 15.08871478 34927,6917.784000000002,95.436,540.8969999999998,538.401,0.0
51781.0,STARLINK-3580,PAYLOAD,2022-10-04 02:48:06,15.08862487,0.0001739,53.2164,202.1416,49.1954,310.9189,0.00048577,7.456e-05,0.0,0 STARLINK-3580,1 51781U 22017P   22277.11674374  .00007456  00000-0  48577-3 0  9993,2 51781  53.2164 202.1416 0001739  49.1954 310.9189 15.08862487 34976,6917.812,95.436,540.88,538.474,0.0
51781.0,STARLINK-3580,PAYLOAD,2022-10-04 12:20:25,15.08854609,0.0001776,53.217,200.358,48.7769,311.3376,0.00025486,3.772e-05,0.0,0 STARLINK-3580,1 51781U 22017P   22277.51418201  .00003772  00000-0  25486-3 0  9993,2 51781  53.2170 200.3580 0001776  48.7769 311.3376 15.08854609 33389,6917.8359999999975,95.437,540.929,538.472,0.0
51781.0,STARLINK-3580,PAYLOAD,2022-10-05 04:14:17,15.0883393,0.0001921999999999,53.2188,197.3873,47.2332,312.8822,-0.00022094,-3.802e-05,0.0,0 STARLINK-3580,1 51781U 22017P   22278.17658951 -.00003802  00000-0 -22094-3 0  9992,2 51781  53.2188 197.3873 0001922  47.2332 312.8822 15.08833930 35132,6917.899,95.438,541.094,538.434,0.0
51781.0,STARLINK-3580,PAYLOAD,2022-10-05 12:11:13,15.08830009,0.0001884,53.2186,195.8988,50.3605,309.7553,-0.00018879,-3.291e-05,0.0,0 STARLINK-3580,1 51781U 22017P   22278.50779558 -.00003291  00000-0 -18879-3 0  9994,2 51781  53.2186 195.8988 0001884  50.3605 309.7553 15.08830009 33537,6917.911,95.438,541.0790000000002,538.4730000000002,0.0
51781.0,STARLINK-3580,PAYLOAD,2022-10-05 18:32:46,15.08840173,0.0001868,53.2197,194.7098,49.4161,310.6993,-0.00011284,-2.084e-05,0.0,0 STARLINK-3580,1 51781U 22017P   22278.77275593 -.00002084  00000-0 -11284-3 0  9995,2 51781  53.2197 194.7098 0001868  49.4161 310.6993 15.08840173 33573,6917.88,95.438,541.0369999999998,538.453,0.0
51781.0,STARLINK-3580,PAYLOAD,2022-10-06 04:05:05,15.08833027,0.0001841,53.2188,192.9251,46.8805,313.2341,-0.00010282,-1.924e-05,0.0,0 STARLINK-3580,1 51781U 22017P   22279.17020154 -.00001924  00000-0 -10282-3 0  9990,2 51781  53.2188 192.9251 0001841  46.8805 313.2341 15.08833027 33634,6917.901999999999,95.438,541.04,538.493,0.0
51781.0,STARLINK-3580,PAYLOAD,2022-10-06 21:34:19,15.08835075,0.000159,53.2183,189.6542,50.5698,309.5435,0.00012124,1.642e-05,0.0,0 STARLINK-3580,1 51781U 22017P   22279.89883414  .00001642  00000-0  12124-3 0  9997,2 51781  53.2183 189.6542 0001590  50.5698 309.5435 15.08835075 35390,6917.895,95.438,540.86,538.66,0.0
51781.0,STARLINK-3580,PAYLOAD,2022-10-07 03:55:52,15.08828758,0.0001879,53.2187,188.4655,43.6181,316.496,0.0001081,1.432e-05,0.0,0 STARLINK-3580,1 51781U 22017P   22280.16380149  .00001432  00000-0  10810-3 0  9993,2 51781  53.2187 188.4655 0001879  43.6181 316.4960 15.08828758 35431,6917.915,95.438,541.08,538.48,0.0
51781.0,STARLINK-3580,PAYLOAD,2022-10-07 21:25:06,15.08837972,0.0001484,53.2182,185.1942,53.3413,306.7716,0.00015213,2.134e-05,0.0,0 STARLINK-3580,1 51781U 22017P   22280.89243553  .00002134  00000-0  15213-3 0  9992,2 51781  53.2182 185.1942 0001484  53.3413 306.7716 15.08837972 33894,6917.887,95.438,540.778,538.725,0.0
51781.0,STARLINK-3580,PAYLOAD,2022-10-08 10:08:12,15.08827322,0.0001698,53.2182,182.8149,45.565,314.548,6.735899999999999e-05,7.84e-06,0.0,0 STARLINK-3580,1 51781U 22017P   22281.42236739  .00000784  00000-0  67359-4 0  9998,2 51781  53.2182 182.8149 0001698  45.5650 314.5480 15.08827322 35626,6917.919,95.438,540.9590000000002,538.609,0.0
51781.0,STARLINK-3580,PAYLOAD,2022-10-09 02:02:03,15.08833373,0.0001849,53.2185,179.8405,44.4095,315.7045,0.00010601,1.399e-05,0.0,0 STARLINK-3580,1 51781U 22017P   22282.08476269  .00001399  00000-0  10601-3 0  9995,2 51781  53.2185 179.8405 0001849  44.4095 315.7045 15.08833373 35723,6917.901,95.438,541.045,538.487,0.0
51781.0,STARLINK-3580,PAYLOAD,2022-10-09 09:58:59,15.08834059,0.0001883,53.2185,178.3536,44.8188,315.2956,7.8699e-05,9.64e-06,0.0,0 STARLINK-3580,1 51781U 22017P   22282.41596428  .00000964  00000-0  78699-4 0  9991,2 51781  53.2185 178.3536 0001883  44.8188 315.2956 15.08834059 34128,6917.899,95.438,541.066,538.461,0.0
51781.0,STARLINK-3580,PAYLOAD,2022-10-09 21:06:40,15.0883742,0.000187,53.2179,176.2713,40.1875,319.9256,8.745299999999999e-05,1.104e-05,0.0,0 STARLINK-3580,1 51781U 22017P   22282.87964073  .00001104  00000-0  87453-4 0  9991,2 51781  53.2179 176.2713 0001870  40.1875 319.9256 15.08837420 34199,6917.888000000001,95.438,541.047,538.46,0.0
51781.0,STARLINK-3580,PAYLOAD,2022-10-10 03:28:13,15.08828713,0.0001779,53.2182,175.0831,47.9559,312.1585,0.00018202,2.609e-05,0.0,0 STARLINK-3580,1 51781U 22017P   22283.14460403  .00002609  00000-0  18202-3 0  9996,2 51781  53.2182 175.0831 0001779  47.9559 312.1585 15.08828713 35885,6917.915,95.438,541.011,538.549,0.0
